NUSAT-50 (NANCY ROMAN)  
1 60493U 24149AB  26068.80227738  .00012094  00000+0  42252-3 0  9994
2 60493  97.3817 150.7693 0002523 238.0469 122.0527 15.29713355 86930
STARLINK-34532          
1 64607U 25137P   26068.17895874  .00027447  00000+0  93628-3 0  9996
2 64607  53.1610 347.7638 0000977  85.5250 274.5862 15.30169384 40511
